[{"OBJECT_NAME":"IRIDIUM 155","OBJECT_ID":"2018-061E","EPOCH":"2026-03-09T14:54:30.448800","MEAN_MOTION":14.34217216,"ECCENTRICITY":0.000198,"INCLINATION":86.3914,"RA_OF_ASC_NODE":98.3248,"ARG_OF_PERICENTER":94.0732,"MEAN_ANOMALY":266.069,"EPHEMERIS_TYPE":0,"CLASSIFICATION_TYPE":"U","NORAD_CAT_ID":43573,"ELEMENT_SET_NO":999,"REV_AT_EPOCH":39908,"BSTAR":-1.8836e-5,"MEAN_MOTION_DOT":-3.3e-7,"MEAN_MOTION_DDOT":0},{"OBJECT_NAME":"COSMOS 1275 DEB","OBJECT_ID":"1981-053AS","EPOCH":"2026-03-09T13:16:30.819936","MEAN_MOTION":14.34449785,"ECCENTRICITY":0.0005338,"INCLINATION":82.8981,"RA_OF_ASC_NODE":132.7473,"ARG_OF_PERICENTER":319.589,"MEAN_ANOMALY":40.4902,"EPHEMERIS_TYPE":0,"CLASSIFICATION_TYPE":"U","NORAD_CAT_ID":12698,"ELEMENT_SET_NO":999,"REV_AT_EPOCH":27720,"BSTAR":0.0015122,"MEAN_MOTION_DOT":4.276e-5,"MEAN_MOTION_DDOT":0}]
